序號,City,Town,Name,Address,Phone,Long,Lat
,臺北市,士林區,粱耳鼻喉科診所,臺北市士林區社正路12-1號,02-28168456,121.509303,25.08855
,臺北市,大同區,大同耳鼻喉科診所,臺北市大同區重慶北路三段250之4號,02-25975833,121.513575,25.071148
,臺北市,大同區,建順診所,臺北市大同區甘州街51號,02-25573250,121.512854,25.059677
,臺北市,大同區,施小兒科診所,臺北市大同區重慶北路三段28號,02-25941935,121.513461,25.06509
,臺北市,大安區,尹書田醫療財團法人書田泌尿科眼科診所,臺北市大安區建國南路二段276號,02-23690211,121.537266,25.025172
,臺北市,大安區,萬通耳鼻喉科診所,臺北市大安區延吉街64-2號1樓,02-27518909,121.553878,25.043365
,臺北市,大安區,劉耳鼻喉科診所,臺北市大安區復興南路二段151巷27號,02-27546060,121.544663,25.028469
,臺北市,中山區,大直佳恩診所,臺北市中山區北安路591號,02-25323301,121.548643,25.081944
,臺北市,中山區,永育樂群診所,臺北市中山區樂群二路210之2號1樓,02-85012268,121.559333,25.079516
,臺北市,中山區,固亷診所,臺北市中山區北安路613號,02-25323036,121.548801,25.082581
,臺北市,中山區,高固亷診所,臺北市中山區北安路613號,02-25323036,121.548801,25.082581
,臺北市,中山區,惟亷診所,臺北市中山區北安路595巷1號B1,02-25323038,121.548528,25.082196
,臺北市,中山區,莊宇龍診所,臺北市中山區北安路637號,02-25331255,121.54903,25.083708
,臺北市,中山區,愛鄰診所,臺北市中山區北安路520-1號,02-25322333,121.5461,25.079699
,臺北市,中山區,龍江固亷診所,臺北市中山區龍江路360號,02-25170093,121.54089,25.066137
,臺北市,中正區,悅心診所,臺北市中正區羅斯福路2段7之2號,02-23961008,121.521196,25.029108
,臺北市,中正區,健康101診所,臺北市中正區牯嶺街97號,02-23648085,121.519082,25.025915
,臺北市,內湖區,大湖診所,臺北市內湖區成功路四段366號,02-27906002,121.600356,25.084859
,臺北市,內湖區,成安耳鼻喉科診所,臺北市內湖區成功路4段61巷10號,02-27935940,121.592761,25.081702
,臺北市,內湖區,林永正診所,臺北市內湖區康樂街130號,02-26315567,121.619156,25.071636
,臺北市,內湖區,施耳鼻喉科診所,臺北市內湖區東湖路90號2樓,02-26331018,121.614864,25.068496
,臺北市,內湖區,康樂診所,臺北市內湖區康樂街80號.82號.84號,02-26308800,121.618859,25.070146
,臺北市,內湖區,陳森豊診所,臺北市內湖區環山路一段2號,02-27990361,121.565392,25.082795
,臺北市,文山區,王令時內科診所,臺北市文山區興隆路二段200號,02-29326912,121.552024,25.001629
,臺北市,北投區,台北欣安耳鼻喉科診所,臺北市北投區石牌路一段152號,02-28210501,121.51316,25.114276
,臺北市,北投區,洪耳鼻喉科診所,臺北市北投區中央南路1段43號,02-28928769,121.501448,25.132204
,臺北市,北投區,黃正宏診所,臺北市北投區西安街一段359號,02-28217076,121.515314,25.114287
,臺北市,松山區,王俊彰耳鼻喉科診所,臺北市松山區民生東路五段17號,02-27665698,121.555944,25.05846
,臺北市,松山區,車參薇小兒科診所,臺北市松山區八德路3段195號1樓,02-25770101,121.55619,25.048162
,臺北市,松山區,泰安親親家庭診所,臺北市松山區光復北路97號,02-27605036,121.558051,25.050861
,臺北市,松山區,陳大昕耳鼻喉科診所,臺北市松山區八德路4段100號,02-27676349,121.560762,25.048369
,臺北市,松山區,詹前俊小兒科診所,臺北市松山區民生東路五段105號,02-27653039,121.560077,25.058776
,臺北市,松山區,澄東耳鼻喉科診所,臺北市松山區三民路37號,02-27420552,121.563524,25.0558
,臺北市,信義區,信義耳鼻喉科診所,臺北市信義區莊敬路391巷4號,02-23450288,121.565775,25.027958
,臺北市,信義區,張育驍診所,臺北市信義區吳興街467巷2弄4號.6號.6號2樓.10號,02-27291011,121.569346,25.023899
,臺北市,信義區,陳世卿診所,臺北市信義區莊敬路435號1樓,02-87803565,121.56695,25.027184
,臺北市,信義區,陳威璋耳鼻喉科診所,臺北市信義區松德路58號,02-27584958,121.576417,25.038758
,臺北市,信義區,黃啟彰診所,臺北市信義區松山路261-1號,02-27696218,121.577974,25.043835
,臺北市,信義區,董耳鼻喉科診所,臺北市信義區永吉路284號,02-27643502,121.574364,25.045379
,臺北市,南港區,永育診所,臺北市南港區福德街320之2號,02-27850700,121.588026,25.039494
,臺北市,南港區,李文珍小兒科診所,臺北市南港區研究院路二段74號,02-26511871,121.615108,25.04557
,臺北市,南港區,冠德耳鼻喉科診所,臺北市南港區研究院路一段17號,02-26513085,121.616579,25.054076
,臺北市,萬華區,快樂兒童診所,臺北市萬華區寶興街121號,02-23328610,121.494803,25.025229
,基隆市,七堵區,西華診所,基隆市七堵區百三街29號,02-24512942,121.695477,25.081966
,基隆市,七堵區,紀醫師診所,基隆市七堵區開元路83號,02-24551482,121.712748,25.095765
,基隆市,中山區,聖德診所,基隆市中山區西定路411號,02-24293939,121.729174,25.139257
,基隆市,中正區,博群診所,基隆市中正區新豐街446號,02-24601356,121.785946,25.135677
,基隆市,安樂區,李偉華耳鼻喉科診所,基隆市安樂區安樂路二段179號1樓,02-24348535,121.724013,25.12101
,基隆市,暖暖區,碇內診所,基隆市暖暖區源遠路323號,02-24595878,121.757513,25.099426
,新北市,八里區,誠泰診所,新北市八里區中山路一段231號,02-26108205,121.411033,25.157539
,新北市,三芝區,三芝彭小兒科診所,新北市三芝區中山路一段59號1樓,02-26369622;02-26369708,121.500763,25.257218
,新北市,三芝區,曾明診所,新北市三芝區中正路一段6號1樓,02-26369942,121.502802,25.259073
,新北市,三重區,三重祥安診所,新北市三重區三和路四段374號,02-22808558,121.48266,25.078745
,新北市,三重區,吉田診所,新北市三重區中正北路174-7號,02-29845093,121.483384,25.066707
,新北市,三重區,至安診所,新北市三重區重安街6號,02-29773835,121.490084,25.058577
,新北市,三重區,洪小兒科診所,新北市三重區三民街243號,02-29823852,121.479945,25.067608
,新北市,三重區,新北市三重區衛生所,新北市三重區新北大道一段1號,02-29825233,121.491392,25.061191
,新北市,三重區,瑞和耳鼻喉科診所,新北市三重區龍門路22號1樓,02-29757788,121.495344,25.071992
,新北市,三重區,詹益智耳鼻喉科診所,新北市三重區重陽路四段6號,02-29859589,121.490632,25.068935
,新北市,三重區,賴美里診所,新北市三重區重新路三段106號,02-89725629,121.492581,25.060381
,新北市,三重區,聰明耳鼻喉科,新北市三重區重新路2段14號1樓,02-89727370,121.499495,25.062685
,新北市,三峽區,北大小兒科診所,新北市三峽區大學路87號2樓,02-26718080,121.375891,24.941707
,新北市,三峽區,星龍耳鼻喉科診所,新北市三峽區國際一街5號1樓,02-26711676,121.374561,24.94309
,新北市,三峽區,詹小兒科診所,新北市三峽區中華路13之6號,02-26742308,121.373548,24.931918
,新北市,三峽區,趙敏政耳鼻喉科診所,新北市三峽區復興路93、95號1樓,02-86743300,121.372217,24.937615
,新北市,土城區,城林小兒科診所,新北市土城區中央路二段312號,02-22706166,121.440386,24.973108
,新北市,土城區,祐生耳鼻喉科診所,新北市土城區中央路二段223之9號1樓,02-82614588,121.440678,24.973188
,新北市,土城區,莊京憲耳鼻喉科診所,新北市土城區明德路一段2號,02-82603171,121.464656,24.985811
,新北市,土城區,頂埔中心診所,新北市土城區中央路四段286號,02-22671382,121.414306,24.956429
,新北市,土城區,裕安診所,新北市土城區裕民路131號1樓,02-22613300,121.451445,24.986507
,新北市,土城區,羅林小兒科診所,新北市土城區裕民路83號1、2樓,02-82733026,121.450052,24.987362
,新北市,中和區,中和重慶耳鼻喉科診所,新北市中和區中和路127號1、2樓,02-22426600,121.501804,25.000122
,新北市,中和區,友善宜安診所,新北市中和區保健路73巷7號,02-29438533,121.510785,24.997091
,新北市,中和區,王俊傑診所,新北市中和區中安街8號,02-29293636,121.513478,25.003392
,新北市,中和區,安祐診所,新北市中和區景新街401號1、2樓,02-86681070,121.512666,24.989729
,新北市,中和區,健和診所,新北市中和區景新街401號1、2樓,02-86681070,121.512666,24.989729
,新北市,中和區,唯安診所,新北市中和區景新街455號,02 2947 9165,121.513292,24.988437
,新北市,中和區,凱程診所,新北市中和區員山路150-8號1樓,02-22231868,121.481363,24.997481
,新北市,中和區,盧建宏耳鼻喉科診所,新北市中和區宜安路151號,02-29493069,121.509075,24.998709
,新北市,五股區,五股水碓診所,新北市五股區自強路36號1樓,02-22921516,121.43384,25.074088
,新北市,五股區,成洲診所,新北市五股區凌雲路一段73號,02-22919463,121.450997,25.101108
,新北市,平溪區,瑞安診所,新北市平溪區平溪街9號,02-24951083,121.738684,25.024989
,新北市,永和區,吳宗坡耳鼻喉科診所,新北市永和區得和路381號,02-86603386,121.524964,24.999426
,新北市,永和區,國平耳鼻喉科診所,新北市永和區永貞路376號,02-89233980,121.50991,25.007027
,新北市,永和區,頂溪耳鼻喉科診所,新北市永和區永和路二段139-1號1樓,02-29290066,121.515041,25.012561
,新北市,永和區,德美診所,新北市永和區中正路455之1號1樓,02-29273001,121.516994,25.005607
,新北市,永和區,德謙耳鼻喉科診所,新北市永和區竹林路216號,02-29265690,121.520708,25.008102
,新北市,石碇區,新北市石碇區衛生所,新北市石碇區碇坪路一段82號,02-26631325,121.65761,24.991349
,新北市,汐止區,弘人小兒科診所,新北市汐止區福德二路152號,02-26932439,121.630427,25.065154
,新北市,汐止區,育和診所,新北市汐止區中正路31號,02-26486803,121.662328,25.070246
,新北市,汐止區,朝芳診所,新北市汐止區中正路8號,02-26427297,121.663073,25.070191
,新北市,汐止區,新北市汐止區衛生所,新北市汐止區新台五路一段266號,02-26412030,121.658534,25.063513
,新北市,汐止區,楊內科小兒科診所,新北市汐止區汐萬路1段25號,02-26420233,121.65579,25.067729
,新北市,汐止區,福德診所,新北市汐止區福德二路171號,02-26959877,121.630743,25.065073
,新北市,坪林區,新北市坪林區衛生所,新北市坪林區坪林里坪林街104號,02-26656272,121.711626,24.935877
,新北市,板橋區,成安診所,新北市板橋區重慶路308巷2號,02-29588182,121.463516,24.998034
,新北市,板橋區,李連成耳鼻喉科診所,新北市板橋區雙十路二段162號,02-22505752,121.473146,25.02951
,新北市,板橋區,周耳鼻喉科診所,新北市板橋區文化路2段5號1樓,02-22525158,121.468466,25.024262
,新北市,板橋區,和安診所,新北市板橋區四維路313號,02-22578133;02-22579249,121.462962,25.028789
,新北市,板橋區,林國本耳鼻喉科診所,新北市板橋區文聖街6號,02-22557445,121.475227,25.032394
,新北市,板橋區,重慶耳鼻喉科診所,新北市板橋區和平路161巷26號,02-89517755,121.463474,24.996772
,新北市,板橋區,莒光診所,新北市板橋區莒光路30號,02-22527700,121.470153,25.024514
,新北市,板橋區,蕭正輝兒科診所,新北市板橋區文化路二段137號1樓,02-22501101,121.469914,25.026831
,新北市,林口區,明揚診所,新北市林口區中山路192號,02-26035801;02-26035802,121.38901,25.079118
,新北市,林口區,林口微笑親子耳鼻喉科診所,新北市林口區文化三路一段419號1樓、421號1樓,02-26000515,121.367397,25.074301
,新北市,林口區,陽光耳鼻喉科診所,新北市林口區仁愛路二段113.115.117號1樓,02-26016068,121.384039,25.074916
,新北市,林口區,橙安親子診所,新北市林口區文化三路二段50號1樓,02-26032507,121.374589,25.080174
,新北市,林口區,穎欣診所,新北市林口區文化二路1段535號1F,02-26069786,121.37398,25.076481
,新北市,林口區,親子耳鼻喉科診所,新北市林口區仁愛路二段113.115.117號1樓,02-26016068,121.383902,25.074843
,新北市,金山區,新北市金山區衛生所,新北市金山區中山路257號4樓,02-24982778,121.636872,25.222094
,新北市,泰山區,永安診所,新北市泰山區仁愛路112-2號,02-85318184,121.433633,25.055579
,新北市,泰山區,永旭診所,新北市泰山區仁愛路88號1樓,02-22979722,121.432992,25.055254
,新北市,泰山區,泰和診所,新北市泰山區明志路2段62號,02-85315320,121.429024,25.052689
,新北市,泰山區,溫法烈耳鼻喉科診所,新北市泰山區泰林路2段175號,02-29098253,121.433546,25.060758
,新北市,泰山區,蔡興龍小兒科診所,新北市泰山區明志路二段422號,02-22093645,121.424919,25.04388
,新北市,泰山區,賴和鴻診所,新北市泰山區明志路二段42號1樓,02-29094502,121.42944,25.053101
,新北市,烏來區,新北市烏來區衛生所,新北市烏來區新烏路五段109號,02-26617200,121.547977,24.871966
,新北市,貢寮區,新北市貢寮區衛生所,新北市貢寮區仁愛路128號,02-24901431,121.927573,25.054955
,新北市,淡水區,水碓瑞安診所,新北市淡水區北新路182巷61號,02-26203669,121.447857,25.177315
,新北市,淡水區,李兆然家醫科診所,新北市淡水區學府路18號,02-26299833,121.447582,25.16807
,新北市,淡水區,沐恩診所,新北市淡水區濱海路一段143號1樓,02-26299777,121.43908,25.189233
,新北市,淡水區,林得時婦產科診所,新北市淡水區中山路14號,02-26220695,121.444812,25.169415
,新北市,淡水區,英專耳鼻喉科皮膚科診所,新北市淡水區英專路96號,02-86317678,121.445877,25.171748
,新北市,淡水區,許景新耳鼻喉科診所,新北市淡水區中山路17號,02-26212779,121.444072,25.169877
,新北市,淡水區,黃秋陽診所,新北市淡水區中山路7號,02-26229596,121.444154,25.169675
,新北市,淡水區,匯眾內科診所,新北市淡水區中山北路一段101號,02-26229773,121.442393,25.176462
,新北市,深坑區,幼恩診所,新北市深坑區北深路三段173號,02-26625951,121.601715,25.003495
,新北市,深坑區,謝家庭醫學科診所,新北市深坑區北深路二段200號,02-26628081,121.612989,25.001659
,新北市,新店區,安立診所,新北市新店區北宜路二段28號1樓,02-22177669,121.548222,24.951429
,新北市,新店區,安倍診所,新北市新店區中正路132號,02-89119181,121.542058,24.971418
,新北市,新店區,邱昰凱小兒科診所,新北市新店區建國路226號1樓,02-29130360,121.537801,24.981459
,新北市,新店區,康禾診所,新北市新店區中正路140號1樓,02-29109696,121.541921,24.97153
,新北市,新店區,陳沛生耳鼻喉科診所,新北市新店區北新路二段39號,02-29178067,121.542755,24.972705
,新北市,新店區,瑞安耳鼻喉科診所,新北市新店區中正路140號1樓,02-29109696,121.541921,24.97153
,新北市,新店區,睿安診所,新北市新店區中正路140號1樓,02-29109696,121.541921,24.97153
,新北市,新店區,耀程耳鼻喉科診所,新北市新店區三民路66號,02-29171110,121.535059,24.972335
,新北市,新莊區,思賢診所,新北市新莊區自立街200號1樓,02-29923806,121.45672,25.045396
,新北市,新莊區,家貞診所,新北市新莊區福壽街67號,02-29942300,121.458185,25.049427
,新北市,新莊區,家慈診所,新北市新莊區福壽街67號,02-29942300,121.458185,25.049427
,新北市,新莊區,家福診所,新北市新莊區福壽街67號,02-29942300,121.458185,25.049427
,新北市,新莊區,新和耳鼻喉科診所,新北市新莊區幸福路69號,02-29938636,121.457171,25.049347
,新北市,新莊區,錦明耳鼻喉科診所,新北市新莊區民安路195號,02-22028080,121.426173,25.022614
,新北市,新莊區,聯安診所,新北市新莊區中正路330號,02-29986191,121.445892,25.034839
,新北市,新莊區,聯福診所,新北市新莊區民安路232號,02-22014370,121.42615,25.022324
,新北市,瑞芳區,詠安診所,新北市瑞芳區明燈路三段79號1樓,02-24960683,121.805246,25.108235
,新北市,萬里區,新北市萬里區衛生所,新北市萬里區瑪鍊路157號,02-24921117,121.689713,25.178332
,新北市,樹林區,念生耳鼻喉科診所,新北市樹林區文化街45號1樓,02-26751099,121.418076,24.988346
,新北市,樹林區,信和耳鼻喉科診所,新北市樹林區博愛街178號1、2樓,02-26822100,121.425701,24.990611
,新北市,樹林區,信和診所,新北市樹林區博愛街178號1、2樓,02-26822100,121.425701,24.990611
,新北市,雙溪區,新北市雙溪區衛生所,新北市雙溪區新基南街18號,02-24931210,121.86645,25.037917
,新北市,蘆洲區,本一診所,新北市蘆洲區長榮路43-1號,02-22836622,121.462967,25.082716
,新北市,蘆洲區,許修平診所,新北市蘆洲區長安街290號,02-2288102,121.457409,25.087994
,新北市,蘆洲區,湯瑪士親子兒科診所,新北市蘆洲區民族路377號1-2樓,02-22885523,121.469922,25.090481
,新北市,蘆洲區,蘆洲現代耳鼻喉科診所,新北市蘆洲區集賢路306號1樓,02-82811112,121.481358,25.085131
,新北市,蘆洲區,蘆洲集賢耳鼻喉科診所,新北市蘆洲區集賢路306號1樓,02-82811112,121.481358,25.085131
,新北市,鶯歌區,怡兒診所,新北市鶯歌區建國路173號,02-26707200,121.349971,24.953389
,新北市,鶯歌區,崇文診所,新北市鶯歌區國慶街141號,02-26783366,121.350964,24.953551
,宜蘭縣,五結鄉,吉祥診所,宜蘭縣五結鄉五結中路二段23-1號,03-9604853,121.797583,24.685609
,宜蘭縣,冬山鄉,徐診所,宜蘭縣冬山鄉照安路33巷32號,039-590923,121.794291,24.631391
,宜蘭縣,宜蘭市,林耳鼻喉科診所,宜蘭縣宜蘭市中山路三段233號,03-9311234,121.753591,24.761606
,宜蘭縣,宜蘭市,曹天德診所,宜蘭縣宜蘭市舊城東路3-1號,03-9353267,121.75556,24.755669
,宜蘭縣,礁溪鄉,岳成診所,宜蘭縣礁溪鄉中山路1段120號,03-9876586,121.769659,24.818508
,宜蘭縣,羅東鎮,劉醫師小兒科診所,宜蘭縣羅東鎮純精路二段229號,03-9518121,121.763784,24.679748
,宜蘭縣,羅東鎮,藍正州小兒科診所,宜蘭縣羅東鎮南門路20號,03-9531168,121.76879,24.673138
,宜蘭縣,蘇澳鎮,吳昌達診所,宜蘭縣蘇澳鎮海邊路141號,03-9955976,121.86523,24.583103
,金門縣,金城鎮,禾心診所,金門縣金城鎮北門里民生路9-7號,082-322180,118.319877,24.433705
,金門縣,金湖鎮,康橋診所,金門縣金湖鎮赤東路150號,082-330096,118.410272,24.438943
,桃園市,八德區,郭淵進診所,桃園市八德區興豐路650號,03-3732373,121.295374,24.930848
,桃園市,八德區,萬耳鼻喉科診所,桃園市八德區介壽路1段913號,03-3635616,121.299738,24.960097
,桃園市,八德區,瀚文耳鼻喉科診所,桃園市八德區桃鶯路5號,03-3641252,121.326443,24.971813
,桃園市,大園區,懷德耳鼻喉科診所,桃園市大園區中正東路19-1號,03-3868878,121.198155,25.064167
,桃園市,大溪區,大桃園耳鼻喉科診所,桃園市大溪區康莊路100號1樓,03-3870976,121.288064,24.88211
,桃園市,中壢區,林浩健診所,桃園市中壢區中央西路2段231-2號,03-4925866,121.21253,24.960963
,桃園市,中壢區,黃文昌診所,桃園市中壢區龍岡路二段123號,03-2841928,121.229533,24.94516
,桃園市,中壢區,黃永輝診所,桃園市中壢區中山路452號,03-4926750,121.216748,24.956893
,桃園市,中壢區,黃曉生小兒科診所,桃園市中壢區環中東路41、43號,03-4552725,121.259995,24.966341
,桃園市,中壢區,詮順耳鼻喉科診所,桃園市中壢區榮民路37號,03-4355300,121.260998,24.969743
,桃園市,中壢區,聯心診所,桃園市中壢區民族路五段310號,03-4205017,121.170305,24.958524
,桃園市,中壢區,馨心親子耳鼻喉科診所,桃園市中壢區中山東路二段536號1樓,03-4655665,121.245499,24.946721
,桃園市,平鎮區,桃園市平鎮區衛生所,桃園市平鎮區新富里振興路1號,03-4576624,121.217776,24.945929
,桃園市,桃園區,吳鎮宇親子耳鼻喉科診所,桃園市桃園區中山路824號1樓、826號1樓,03-3787876,121.290395,24.990915
,桃園市,桃園區,李柏鋒診所,桃園市桃園區中山路807號,03-2207480,121.289171,24.989895
,桃園市,桃園區,柯福順耳鼻喉科診所,桃園市桃園區中山路613號,03-2201122,121.294167,24.990919
,桃園市,桃園區,曹景雄小兒科診所,桃園市桃園區延平路113號,03-2183141,121.314808,24.9843
,桃園市,桃園區,楊文彬耳鼻喉科診所,桃園市桃園區春日路850號,03-3150628,121.309381,25.014804
,桃園市,桃園區,鴻林耳鼻喉科診所,桃園市桃園區中正路567號,03-3377088,121.304908,25.004038
,桃園市,龍潭區,同安親子診所,桃園市龍潭區中正路284號,03-4707278,121.217474,24.861999
,桃園市,龍潭區,徐耳鼻喉科診所,桃園市龍潭區北龍路251號,03-4899631,121.216813,24.867715
,桃園市,龍潭區,黃啟昌小兒科診所,桃園市龍潭區中正路286號,03-4798466,121.217485,24.861961
,桃園市,龜山區,朱永恆診所,桃園市龜山區中興路353號,03-3508182,121.335055,24.991947
,桃園市,龜山區,卓越耳鼻喉科診所,桃園市龜山區萬壽路1段107號1樓、109號1樓,02-82000580,121.409094,25.018923
,桃園市,龜山區,微笑親子耳鼻喉科診所,桃園市龜山區文化二路51號1樓,03-3180022,121.367423,25.056847
,桃園市,龜山區,遠東耳鼻喉科診所,桃園市龜山區萬壽路2段997號,03-3502720,121.336781,24.994712
,桃園市,蘆竹區,佳音小兒科診所,桃園市蘆竹區中正路359號,03-3127553,121.290976,25.049022
,桃園市,蘆竹區,陳俊仁親子診所,桃園市蘆竹區中正路128號,03-3215866,121.292766,25.046607
,新竹市,北區,台安耳鼻喉科診所,新竹市北區北大路466號,03-5246069,120.960033,24.80176
,新竹市,北區,林敬堯親子診所,新竹市北區湳雅街120號,03-5350123,120.973052,24.819742
,新竹市,北區,祐庭耳鼻喉科診所,新竹市北區光華街99-1號1樓,03-5351166,120.971673,24.818121
,新竹市,北區,陳君毅小兒科診所,新竹市北區西大路738號,03-5345705,120.959078,24.81003
,新竹市,北區,陳建銘婦產科診所,新竹市北區武陵路218巷58號,03-5337789,120.970346,24.820098
,新竹市,東區,林安復耳鼻喉科診所,新竹市東區中華路二段159號,03-5355890,120.979828,24.807053
,新竹市,東區,城佑耳鼻喉科診所,新竹市東區建中路59號,03-5748329,120.994977,24.801621
,新竹市,東區,英慈耳鼻喉科診所,新竹市東區立功里光復路二段308號,03-5722846,120.998682,24.795555
,新竹市,東區,晨心兒科診所,新竹市東區中央路163號,03-5322066,120.972635,24.808306
,新竹市,東區,彭耳鼻喉科診所,新竹市東區中央路195號,03-5428888,120.973597,24.808684
,新竹市,東區,廖明厚小兒科診所,新竹市東區民族路130號,03-5316665,120.977604,24.808036
,新竹市,東區,賴閔宦小兒科診所,新竹市東區南大路387-1號,03-5611238,120.968352,24.796582
,新竹市,東區,謝德貴兒童診所,新竹市東區光復路一段360-2號,03-6686666,121.017581,24.783526
,新竹縣,竹北市,艾兒診所,新竹縣竹北市福興東路二段140號,03-6586699,121.028431,24.814446
,新竹縣,竹北市,哈哈小兒科診所,新竹縣竹北市科大一路30號,03-6570590,121.007836,24.821787
,新竹縣,竹北市,啄木鳥耳鼻喉科診所,新竹縣竹北市莊敬三路39號1號,03-6586586,121.024942,24.822424
,新竹縣,竹北市,游恆懿診所,新竹縣竹北市縣政八街23號,03-5586721,121.009949,24.825628
,新竹縣,竹北市,歌斐木耳鼻喉科診所,新竹縣竹北市文興路二段7號1樓,03-6688081,121.033244,24.808409
,新竹縣,竹東鎮,王尹弘耳鼻喉科診所,新竹縣竹東鎮長春路三段5號,03-5941175,121.086465,24.740089
,新竹縣,竹東鎮,崇光小兒專科診所,新竹縣竹東鎮長春路三段188號1樓,03 -5959878,121.083378,24.743969
,新竹縣,湖口鄉,朱先營診所,新竹縣湖口鄉中正路一段27號,03-5998325,121.044863,24.9026
,新竹縣,新豐鄉,吳家仁小兒科診所,新竹縣新豐鄉新興路245號,03-5575302,120.99672,24.870322
,新竹縣,新豐鄉,羅世績診所,新竹縣新豐鄉建興路一段154-10號,03-5593399,120.994546,24.874811
,新竹縣,橫山鄉,新竹縣橫山鄉衛生所,新竹縣橫山鄉新興街141巷10號,03-5932004,121.13928,24.717562
,新竹縣,橫山鄉,橫山庄診所,新竹縣橫山鄉橫山街一段216號,03-5931395,121.115719,24.718969
,苗栗縣,三義鄉,苗栗縣三義鄉衛生所,苗栗縣三義鄉復興路45號,037-872014,120.770769,24.413381
,苗栗縣,公館鄉,祥恩診所,苗栗縣公館鄉大同路80號,037-220118,120.828067,24.500302
,苗栗縣,竹南鎮,宏安診所,苗栗縣竹南鎮光復路265號,037-466958;037-466689,120.879324,24.691393
,苗栗縣,竹南鎮,苗栗縣竹南鎮衛生所,苗栗縣竹南鎮大營路209號,037-470152,120.872536,24.687723
,苗栗縣,後龍鎮,後龍診所,苗栗縣後龍鎮中山路123號,037-773088,120.791123,24.613779
,苗栗縣,後龍鎮,苗栗縣後龍鎮衛生所,苗栗縣後龍鎮大庄里光華路375號,037-722008,120.789516,24.611677
,苗栗縣,苑裡鎮,良宜診所,苗栗縣苑裡鎮建國路106號,037-860937,120.65262,24.444302
,苗栗縣,苗栗市,吳昆展小兒科診所,苗栗縣苗栗市中正路71號,037-265532,120.824523,24.568276
,苗栗縣,苗栗市,苗栗縣苗栗市衛生所,苗栗縣苗栗市建民街28號,037-277129,120.824894,24.565957
,苗栗縣,苗栗市,詹求孚診所,苗栗縣苗栗市中正路468號,037-320722,120.821572,24.559566
,苗栗縣,泰安鄉,苗栗縣泰安鄉衛生所,苗栗縣泰安鄉清安村洗水坑二鄰72號,037-941054,120.908287,24.447223
,苗栗縣,通霄鎮,苗栗縣通霄鎮衛生所,苗栗縣通霄鎮中正路16-2號,037-752048,120.682016,24.490403
,苗栗縣,頭份市,祥安診所,苗栗縣頭份市中華路928號,037-664486,120.907466,24.685683
,苗栗縣,頭屋鄉,苗栗縣頭屋鄉衛生所,苗栗縣頭屋鄉頭屋村13鄰中山街54號,037-253534,120.850295,24.576104
,臺中市,大甲區,力倫診所,臺中市大甲區蔣公路246號,04-26805889,120.619424,24.347256
,臺中市,大里區,李文軒耳鼻喉科診所,臺中市大里區益民路二段271號,04-24872898,120.683746,24.110958
,臺中市,大里區,陳建利診所,臺中市大里區成功路387號,04-24935145,120.702635,24.08817
,臺中市,大里區,陳祥雪小兒科診所,臺中市大里區新生西路42號,04-24850052,120.688075,24.104924
,臺中市,大里區,廖正雄小兒科診所,臺中市大里區中興路一段167號,04-24938497,120.695592,24.088096
,臺中市,大雅區,林釗尚小兒科診所,臺中市大雅區大雅路151號,04-25600313,120.647465,24.225494
,臺中市,太平區,弘鑫耳鼻喉科診所,臺中市太平區樹孝路202號,04-23933595,120.717871,24.152802
,臺中市,太平區,建志耳鼻喉科診所,臺中市太平區中興路110號,04-22766899,120.715258,24.127119
,臺中市,北屯區,張廣智耳鼻喉科診所,臺中市北屯區中清路二段531號,04-22924703,120.66592,24.181868
,臺中市,北屯區,優幼診所,臺中市北屯區北屯路435-16號,04-22493636,120.700119,24.178538
,臺中市,北區,朱永昌內科小兒科診所,臺中市北區三民路三段210之10號,04-22253269,120.686055,24.153918
,臺中市,北區,秀慧診所,臺中市北區忠太東路58-12號,04-22031830,120.668225,24.162336
,臺中市,北區,和康耳鼻喉科診所,臺中市北區健行路870-1號1樓,04-22035185,120.668622,24.15941
,臺中市,北區,家昌耳鼻喉科診所,臺中市北區陜西路62號1樓,04-22993888,120.6661832,24.1686604
,臺中市,北區,展弘耳鼻喉科診所,臺中市北區漢口路四段322號,04-22307388,120.683998,24.166855
,臺中市,北區,張右川診所,臺中市北區興進路211-2號,04-22329988,120.692111,24.155491
,臺中市,北區,祥祐診所,臺中市北區三民路三段348號,04-22315688,120.689942,24.15762
,臺中市,北區,謝佳璋小兒科診所,臺中市北區漢口路四段357號號,04-22355918,120.682408,24.167185
,臺中市,西屯區,平安診所,臺中市西屯區大墩路917-1號,04-23277206,120.650535,24.157095
,臺中市,西屯區,朱永成耳鼻喉科診所,臺中市西屯區西屯路三段159之55號,04-24618421,120.617898,24.188003
,臺中市,西屯區,和賢耳鼻喉科診所,臺中市西屯區中清路二段1386巷23號,04-24261802,120.658553,24.196147
,臺中市,西屯區,林鴻任耳鼻喉科診所,臺中市西屯區青海路一段116號,04-23111518,120.654302,24.164942
,臺中市,西屯區,陳亮宇耳鼻喉科診所,臺中市西屯區大墩路995號,04-23203888,120.652552,24.160274
,臺中市,西區,吳東洀小兒科診所,臺中市西區美村路一段362號,04-23029672,120.661461,24.144904
,臺中市,西區,阮春閔小兒科診所,臺中市西區南屯路一段148號,04-23757456,120.66079,24.13285
,臺中市,西區,佳慶診所,臺中市西區東興路三段272之1號,04-23208989,120.653684,24.155224
,臺中市,西區,陳正和耳鼻喉科診所,臺中市西區向上路一段226號,04-23012729,120.659231,24.146909
,臺中市,西區,曾憲彰耳鼻喉科診所,臺中市西區五權西路一段275號,04-23786066,120.655309,24.139897
,臺中市,西區,維一診所,臺中市西區太原路一段220號,04-23139987,120.662164,24.163152
,臺中市,沙鹿區,小太陽小兒科診所,臺中市沙鹿區鎮南路二段631號,04-26365757,120.559135,24.234493
,臺中市,沙鹿區,何秋燕皮膚科診所,臺中市沙鹿區沙田路53之5號,04-26362982,120.558578,24.232405
,臺中市,沙鹿區,真善美診所,臺中市沙鹿區成功東街119號,04-26656037,120.564747,24.24184
,臺中市,東區,華幼診所,臺中市東區進化路211號,04-23600099,120.694164,24.149657
,臺中市,東勢區,長頸鹿小兒科診所,臺中市東勢區豐勢路418號,04-25773481,120.829215,24.255316
,臺中市,東勢區,維恩耳鼻喉科診所,臺中市東勢區豐勢路372號,04-25885413,120.829571,24.254346
,臺中市,南屯區,主悅診所,臺中市南屯區干城街269號,04-22540711,120.632392,24.152346
,臺中市,南屯區,邢志宇耳鼻喉科診所,臺中市南屯區南屯路二段252號,04-24735806,120.649103,24.136986
,臺中市,南屯區,忠勇診所,臺中市南屯區忠勇路67之3號1、2樓,04-23826625,120.614683,24.145167
,臺中市,南屯區,林耳鼻喉科診所,臺中市南屯區東興路2段50號,04-24751525,120.653195,24.137032
,臺中市,南屯區,張家強診所,臺中市南屯區黎明路二段490號,04-22591683,120.635124,24.15311
,臺中市,南屯區,誠心親子耳鼻喉科診所,臺中市南屯區東興路二段33號2樓,04-24719001,120.652894,24.137138
,臺中市,南屯區,親子診所,臺中市南屯區黎明路一段1091號,04-23862626,120.637752,24.139341
,臺中市,南屯區,薛凱中診所,臺中市南屯區大墩路383號,04-24716898,120.649685,24.145721
,臺中市,南屯區,蘇德慶診所,臺中市南屯區東興路二段57號1樓,04-24717572,120.652835,24.138047
,臺中市,南區,林忠立診所,臺中市南區美村南路58號,04-22619948,120.666978,24.117615
,臺中市,南區,陳鉉煒小兒科診所,臺中市南區臺中路156號,04-22861566,120.68436,24.131094
,臺中市,烏日區,德昌小兒科診所,臺中市烏日區中山路一段335號,04-23372686,120.641248,24.108509
,臺中市,清水區,林玉彪診所,臺中市清水區光華路135號,04-26233880,120.573981,24.268232
,臺中市,清水區,清水區向陽耳鼻喉科診所,臺中市清水區中山路243-2號,04-26228595,120.575149,24.268899
,臺中市,清水區,清水祥和診所,臺中市清水區五權東路81號,04-26232191,120.573849,24.27504
,臺中市,清水區,陳振昆診所,臺中市清水區中山路127號,04-26225205,120.573352,24.264326
,臺中市,潭子區,佳佑診所,臺中市潭子區勝利路319號,04-25336888,120.700407,24.214084
,臺中市,潭子區,博文耳鼻喉科診所,臺中市潭子區中山路1段99號1樓,04-25320707,120.702291,24.193261
,臺中市,豐原區,吳志修耳鼻喉科診所,臺中市豐原區中山路347號,04-25120295,120.715006,24.249019
,臺中市,豐原區,林大丕小兒科診所,臺中市豐原區三民路130號,04-25282345,120.719519,24.253601
,臺中市,豐原區,許慶芳耳鼻喉科診所,臺中市豐原區中山路506號,04-25292857,120.714842,24.250142
,彰化縣,二林鎮,二林綜祐診所,彰化縣二林鎮中正路6號,04-8952991,120.369393,23.899452
,彰化縣,二林鎮,明穎耳鼻喉科診所,彰化縣二林鎮仁愛路676號,04-8969662,120.364318,23.902161
,彰化縣,大村鄉,五行診所,彰化縣大村鄉村山腳路2-27號,04-8527603,120.589759,23.982033
,彰化縣,大村鄉,黃建成診所,彰化縣大村鄉茄苳路一段235號,04-8524074,120.544949,23.999406
,彰化縣,北斗鎮,蔡瑞聰耳鼻喉科診所,彰化縣北斗鎮中華路197號,04-8875577,120.523984,23.872952
,彰化縣,和美鎮,家禮診所,彰化縣和美鎮仁美路186號,04-7551829,120.497973,24.108523
,彰化縣,和美鎮,蕭國隆小兒科診所,彰化縣和美鎮彰美路5段255號,04-7553021,120.498058,24.1097259
,彰化縣,社頭鄉,景新診所,彰化縣社頭鄉社頭村清水岩路333號,04-8721227,120.590093,23.899683
,彰化縣,花壇鄉,天祐診所,彰化縣花壇鄉花壇街112號1樓,04-7883678,120.539103,24.022337
,彰化縣,花壇鄉,志元診所,彰化縣花壇鄉長沙村中正路118號,04-7878892,120.544174,24.027218
,彰化縣,員林市,育英診所,彰化縣員林市育英路37-12號,04-8331458,120.575182,23.959271
,彰化縣,員林市,涂嘉桂診所,彰化縣員林市中正路113號,04-8360898,120.575633,23.95192
,彰化縣,員林市,慈安小兒科診所,彰化縣員林市光明街163號,04-8369578,120.572335,23.95427
,彰化縣,鹿港鎮,宏文小兒科診所,彰化縣鹿港鎮龍山里中山路3-1號,04-7779489,120.436705,24.050363
,彰化縣,鹿港鎮,豐安診所,彰化縣鹿港鎮海浴路11之1號,04-7746395,120.429101,24.061138
,彰化縣,溪湖鎮,安泓耳鼻喉專科診所,彰化縣溪湖鎮彰水路三段492號,04-8828119,120.480154,23.964186
,彰化縣,溪湖鎮,許立德小兒科診所,彰化縣溪湖鎮培英路42號,04-8856518,120.481862,23.967711
,彰化縣,彰化市,余偉傑小兒科診所,彰化縣彰化市曉陽路188號,04-7289786,120.537546,24.073065
,彰化縣,彰化市,吳桂芬診所,彰化縣彰化市民生路161號1樓,04-7280638,120.542818,24.078641
,彰化縣,彰化市,莊永勳耳鼻喉科診所,彰化縣彰化市曉陽路200號,04-7201551,120.537301,24.073101
,彰化縣,彰化市,許小兒科診所,彰化縣彰化市信義里中正路一段452號1樓,04-7222279,120.542134,24.082571
,彰化縣,彰化市,陽光小兒科診所,彰化縣彰化市彰南路二段219號,04-7320210,120.581536,24.084854
,彰化縣,彰化市,聖比安耳鼻喉科診所,彰化縣彰化市華山路99、101號,04-7203595;04-7203695,120.540441,24.074722
,彰化縣,福興鄉,福興林診所,彰化縣福興鄉沿海路3段204號1樓,04-7708896,120.413562,24.029253
,彰化縣,福興鄉,慶安診所,彰化縣福興鄉沿海路三段275號1樓,04-7704276,120.414411,24.030403
,南投縣,仁愛鄉,南投縣仁愛鄉衛生所,南投縣仁愛鄉大同村五福巷17號,049-2802341,121.134324,24.024304
,南投縣,水里鄉,信望愛診所,南投縣水里鄉民族路362號,049-2770000,120.854941,23.813642
,南投縣,名間鄉,南投縣名間鄉衛生所,南投縣名間鄉彰南路42號,049-2732135,120.702853,23.838518
,南投縣,竹山鎮,智瑤小兒科診所,南投縣竹山鎮集山路三段879號,049-2652288,120.683538,23.75718
,南投縣,信義鄉,慶安診所,南投縣信義鄉新開巷100號,049-2791850,120.854663,23.6962
,南投縣,南投市,陳加偉耳鼻喉科診所,南投縣南投市復興路109號,049-2200679,120.687481,23.90483
,南投縣,南投市,黃子卿小兒科診所,南投縣南投市民族路123號1、2樓,049-2200623,120.690844,23.909966
,南投縣,埔里鎮,安麗小兒科內科診所,南投縣埔里鎮中山路二段262號,049-2991030,120.968566,23.966472
,南投縣,埔里鎮,陳宏麟診所,南投縣埔里鎮南昌街221號,049-2900303,120.964449,23.966339
,南投縣,草屯鎮,洪瑞成小兒科診所,南投縣草屯鎮中山街38號,049-2323151,120.682605,23.975121
,南投縣,國姓鄉,安鴻診所,南投縣國姓鄉石門村中興路130號,049-2722778,120.856534,24.041278
,南投縣,集集鎮,南投縣集集鎮衛生所,南投縣集集鎮民生路106號,049-2762015,120.78662,23.828896
,雲林縣,斗六市,小幼苗小兒科診所,雲林縣斗六市中山路311號,05-5362982,120.538533,23.701644
,雲林縣,斗南鎮,小熊小兒科診所,雲林縣斗南鎮南昌路140號,05-5966775,120.478489,23.673196
,雲林縣,斗南鎮,宏佑診所,雲林縣斗南鎮文元街86號,05-5950456,120.476705,23.675246
,雲林縣,北港鎮,德豐診所,雲林縣北港鎮公園路12號,05-7835909,120.302993,23.573502
,雲林縣,西螺鎮,長榮診所,雲林縣西螺鎮建興路148號,05-5876222,120.459365,23.797663
,雲林縣,西螺鎮,茂杉診所,雲林縣西螺鎮正興里福興路141號,05-5862213,120.460577,23.798473
,雲林縣,虎尾鎮,太安診所,雲林縣虎尾鎮公安路178-18號1樓,05-6326650,120.433819,23.709848
,雲林縣,虎尾鎮,偉哲內小兒科診所,雲林縣虎尾鎮中山里仁愛路67號,05-6323409;05-6328683,120.434228,23.708949
,雲林縣,麥寮鄉,台全診所,雲林縣麥寮鄉新興路16號,05-6930099,120.252374,23.74704
,嘉義市,西區,黃思超小兒科診所,嘉義市西區民族路632號,05-2163232,120.445049,23.47569
,嘉義市,西區,嘉安婦幼診所,嘉義市西區友愛路390號,05-2335515,120.433698,23.486732
,嘉義市,東區,林育興耳鼻喉科診所,嘉義市東區吳鳳北路133號,05-2288568,120.45338,23.47701
,嘉義市,東區,葉弘貴小兒科診所,嘉義市東區中山路253號,05-2253863,120.45134,23.480499
,嘉義縣,中埔鄉,台大佳醫診所,嘉義縣中埔鄉金蘭村頂山門34-51號,05-2399199,120.493889,23.446431
,嘉義縣,太保市,定安診所,嘉義縣太保市南新里中山路一段311-5號,05-2371777,120.378207,23.498525
,嘉義縣,太保市,嘉義縣立慢性病防治所,嘉義縣太保市祥和二路東段3號,05-3620571#134,120.292894,23.457536
,嘉義縣,民雄鄉,賴政友診所,嘉義縣民雄鄉東榮村和平路9號,05-2266550,120.431199,23.555419
,嘉義縣,朴子市,尚群診所,嘉義縣朴子市海通路98之8號,05-3705678,120.240253,23.463915
,嘉義縣,朴子市,員祐耳鼻喉科診所,嘉義縣朴子市新榮路90號,05-3661590,120.245234,23.461248
,嘉義縣,竹崎鄉,嘉義縣竹崎鄉衛生所,嘉義縣竹崎鄉文化路19-1號,05-2611264,120.552015,23.521512
,嘉義縣,新港鄉,昌模小兒科診所,嘉義縣新港鄉福德路20號,05-3740369,120.345586,23.556584
,臺南市,中西區,李朝泰小兒科診所,臺南市中西區成功路319號,06-2256618,120.200418,22.999849
,臺南市,中西區,紀冠廷診所,臺南市中西區青年路119號,06-2263931,120.208603,22.992137
,臺南市,中西區,陳俊達小兒科診所,臺南市中西區中山路21號,06-2221867,120.205776,22.993131
,臺南市,仁德區,三華診所,臺南市仁德區太子路142號,06-2731826,120.263112,22.991444
,臺南市,仁德區,協和家醫科診所,臺南市仁德區中正路三段79號,06-2701507,120.252574,22.973896
,臺南市,仁德區,趙俊凱耳鼻喉科診所,臺南市仁德區中正路二段1092號,06-2491886,120.25251,22.969185
,臺南市,六甲區,民生診所,臺南市六甲區六甲里中正路531號,06-6986015,120.351375,23.231106
,臺南市,六甲區,甲和診所,臺南市六甲區六甲里建國街74號,06-6991393,120.3501256,23.2309362
,臺南市,北門區,大立診所,臺南市北門區北門里72號,06-7860090,120.124859,23.267258
,臺南市,北區,王界三小兒科診所,臺南市北區文賢路1068號,06-3583770,120.193831,23.014893
,臺南市,北區,海安小兒科診所,臺南市北區海安路3段761號,06-3589696,120.200269,23.012872
,臺南市,北區,張金石小兒科診所,臺南市北區公園路191號,06-2206228,120.207567,22.999265
,臺南市,北區,劉伊薰小兒科診所,臺南市北區北安路一段259號,06-2832111,120.20677,23.018995
,臺南市,永康區,阮嵩翔耳鼻喉科診所,臺南市永康區大灣路930號,06-2728333,120.255268,22.999642
,臺南市,永康區,林獻諒小兒科診所,臺南市永康區中華路347號,06-3134761,120.233726,23.008213
,臺南市,永康區,富ㄦ康小兒科診所,臺南市永康區中山路55號,06-2318600,120.256244,23.029212
,臺南市,永康區,德安小兒科診所,臺南市永康區永大路二段1538號,06-2032000,120.260998,23.025331
,臺南市,永康區,蔡尚均小兒科診所,臺南市永康區中華路675之1號,06-3020188,120.228954,23.015964
,臺南市,玉井區,双美診所,臺南市玉井區太子街39巷8號,06-5746996,120.460641,23.122762
,臺南市,白河區,安聯診所,臺南市白河區富民路62號,06-6852555,120.415953,23.344826
,臺南市,安平區,石門診所,臺南市安平區安平路21號,06-2242666,120.167862,22.998996
,臺南市,安平區,吳國堯小兒科診所,臺南市安平區文平路438號,06-2933358,120.178932,22.993589
,臺南市,安定區,臺南市安定區衛生所,臺南市安定區安定59-1號,06-5922022,120.237375,23.121552
,臺南市,安南區,李宗勳耳鼻喉科診所,臺南市安南區海佃路一段282號,06-2502345,120.191365,23.026344
,臺南市,安南區,陳昱成耳鼻喉科診所,臺南市安南區海佃路一段196號,06-2800178,120.191692,23.02494
,臺南市,安南區,魏大倫耳鼻喉科診所,臺南市安南區安和路一段356號,06-2568119,120.212543,23.03328
,臺南市,西港區,千日好診所,臺南市西港區中山路350號,06-7954509,120.20335,23.122012
,臺南市,佳里區,佳安診所,臺南市佳里區中山路188號,06-7237768,120.177228,23.158967
,臺南市,佳里區,劉亞伯耳鼻喉科診所,臺南市佳里區延平路353號,06-7236765,120.178078,23.162785
,臺南市,東區,侯世婷小兒科診所,臺南市東區崇善路511號,06-3369131,120.229305,22.974353
,臺南市,東區,徐慶鐘小兒科診所,臺南市東區長榮路二段306號,06-2369954,120.221654,22.991342
,臺南市,東區,陳勃旭耳鼻喉科診所,臺南市東區崇善路438號,06-3358868,120.22918,22.973756
,臺南市,東區,陳淑玲林原弘小兒科診所,臺南市東區崇學路229號,06-2900255,120.2221525,22.9812838
,臺南市,南區,林大傑耳鼻喉科診所,臺南市南區金華路二段171號,06-2915660,120.191295,22.981265
,臺南市,南區,張祐禎家庭醫學科診所,臺南市南區中華南路二段72號,06-2920909,120.193805,22.962208
,臺南市,柳營區,蔡瑞頒診所,臺南市柳營區光福里成功街210號,06-6224466,120.313373,23.278623
,臺南市,將軍區,美地診所,臺南市將軍區苓仔寮里苓保81號,06-7946127,120.164703,23.217893
,臺南市,麻豆區,陳信宏小兒科診所,臺南市麻豆區民生路36-8號,06-5719889,120.254042,23.181774
,臺南市,善化區,臺南市善化區衛生所,臺南市善化區中山路200號,06-5837035,120.299922,23.132764
,臺南市,善化區,聯和耳鼻喉科診所,臺南市善化區大成路312之1號,06-5851696,120.298002,23.129878
,臺南市,新化區,徐小兒科診所,臺南市新化區中山路193號,06-5901995,120.310061,23.036697
,臺南市,新市區,佳安小兒科,臺南市新市區中正路331號,06-5995234,120.294563,23.079851
,臺南市,新營區,同慶診所,臺南市新營區三民路37之6號,06-6323566,120.319723,23.307312
,臺南市,新營區,陳耀軫診所,臺南市新營區中正路57號,06-6356988,120.316181,23.316759
,臺南市,新營區,謝兆唐診所,臺南市新營區民治路60-2號,06-6377070,120.313036,23.310735
,臺南市,新營區,顏內小兒科診所,臺南市新營區民權路82號,06-6320209,120.312612,23.30656
,臺南市,歸仁區,茂禾耳鼻喉科診所,臺南市歸仁區中山路一段519號1樓,06-3303232,120.297318,22.966263
,臺南市,歸仁區,蔡迪光小兒科,臺南市歸仁區民權北路107號,06-2397839,120.288058,22.969919
,高雄市,三民區,和平醫療社團法人進興診所,高雄市三民區九如一路171號,07-3869559,120.339359,22.636811
,高雄市,三民區,柳雱邁診所,高雄市三民區大順二路96號,07-3895640,120.327285,22.641954
,高雄市,三民區,范雅修小兒科診所,高雄市三民區平等路163號,07-3876366,120.320831,22.642189
,高雄市,三民區,許聰騰診所,高雄市三民區大昌二路100號,07-3981023,120.332316,22.642897
,高雄市,三民區,鼎真診所,高雄市三民區金鼎路325號,07-3103130,120.32017,22.664784
,高雄市,三民區,緯立診所,高雄市三民區建元路30號1樓,07-3850785,120.317583,22.647044
,高雄市,三民區,蕭瑞榮小兒科診所,高雄市三民區建工路533號,07-3867121,120.321659,22.648641
,高雄市,三民區,儲昭仁耳鼻喉科診所,高雄市三民區九如一路854號,07-3890470,120.318738,22.640239
,高雄市,大寮區,大承耳鼻喉科診所,高雄市大寮區鳳屏一路466號,07-7013668,120.392702,22.636111
,高雄市,大寮區,佳和耳鼻喉科診所,高雄市大寮區鳳林三路516號,07-7821500,120.395437,22.606255
,高雄市,大寮區,宜和內兒科診所,高雄市大寮區鳳林三路341號,07-7816825,120.397711,22.601503
,高雄市,大寮區,張桐榮診所,高雄市大寮區鳳林三路573號,07-7825382,120.394756,22.6083
,高雄市,大寮區,郭其靈診所,高雄市大寮區鳳林三路541號,07-7823335,120.395163,22.607652
,高雄市,小港區,孔鳳診所,高雄市小港區孔鳳路571號,07-7910311,120.358625,22.584112
,高雄市,小港區,明義診所,高雄市小港區孔鳳路542號,07-7916959,120.358821,22.582145
,高雄市,小港區,洪清中兒科診所,高雄市小港區二苓路192號1樓,07-8063773,120.349061,22.56556
,高雄市,仁武區,仁雄診所,高雄市仁武區仁雄路15-1號,07-3741298,120.353236,22.680719
,高雄市,仁武區,陽光診所,高雄市仁武區中華路255號,07-3755500,120.351551,22.700291
,高雄市,仁武區,劉內兒科診所,高雄市仁武區仁心路6號,07-3718727,120.355907,22.681815
,高雄市,左營區,沈嘉充診所,高雄市左營區中華一路5號,07-5851778,120.286816,22.669658
,高雄市,左營區,長安診所,高雄市左營區左營大路253號1樓,07-5821864,120.290476,22.686184
,高雄市,左營區,振亮診所,高雄市左營區左營大路156號,07-5879799,120.28922,22.683758
,高雄市,左營區,富誠診所,高雄市左營區富國路355號1樓,07-5560925,120.307306,22.666858
,高雄市,左營區,華夏診所,高雄市左營區華夏路708號1樓,07-3453961,120.30224,22.677824
,高雄市,左營區,黃昭文診所,高雄市左營區自由二路255號,07-5592289,120.308241,22.662472
,高雄市,左營區,楊宜璋耳鼻喉科診所,高雄市左營區明誠二路362號,07-5591007,120.307227,22.661249
,高雄市,左營區,福山診所,高雄市左營區重愛路218號,07-3482323,120.315601,22.685597
,高雄市,岡山區,吳宗慶診所,高雄市岡山區中山北路47號,07-6229828,120.298665,22.793821
,高雄市,岡山區,黃子育診所,高雄市岡山區前峰路39號,07-6270101,120.288569,22.794696
,高雄市,岡山區,黃仲達診所,高雄市岡山區柳橋東路9-2號,07-6297895,120.294884,22.790766
,高雄市,岡山區,黃耳鼻喉科診所,高雄市岡山區岡山路347-1號,07-6230011,120.295132,22.797674
,高雄市,林園區,建芳診所,高雄市林園區東林東路28號,07-6467666,120.396568,22.50376
,高雄市,林園區,黃英豪診所,高雄市林園區林園北路188號,07-6412134,120.395045,22.50769
,高雄市,前金區,大郭診所,高雄市前金區成功一路412號,07-2412233,120.292716,22.62732
,高雄市,前鎮區,吳泰成耳鼻喉科診所,高雄市前鎮區林森三路150號,07-3361136;07-3360326,120.308862,22.613571
,高雄市,前鎮區,南隆小兒科診所,高雄市前鎮區復興三路391號,07-3382967,120.311409,22.613382
,高雄市,前鎮區,美和診所,高雄市前鎮區翠亨北路577號,07-8123381,120.312972,22.592286
,高雄市,前鎮區,美德聯合診所,高雄市前鎮區草衙二路385號,07-8156375,120.322333,22.578354
,高雄市,前鎮區,祥全診所,高雄市前鎮區復興三路393號2樓,07-3340393,120.311436,22.613467
,高雄市,前鎮區,傳家家庭醫學科診所,高雄市前鎮區一德路59號,07-3344117,120.308751,22.609642
,高雄市,前鎮區,楊榮超診所,高雄市前鎮區一心二路133號,07-3382616,120.308336,22.612089
,高雄市,前鎮區,聖青診所,高雄市前鎮區草衙一路112號,07-8310970,120.32223,22.584226
,高雄市,前鎮區,劉志明耳鼻喉科診所,高雄市前鎮區一心一路482號,07-3363311,120.314235,22.609912
,高雄市,苓雅區,王勇智耳鼻喉科診所,高雄市苓雅區四維二路247號,07-7253460,120.317143,22.621556
,高雄市,苓雅區,立佳診所,高雄市苓雅區輔仁路149號,07-7710966,120.333015,22.63022
,高雄市,苓雅區,林文樹小兒科內科診所,高雄市苓雅區武慶三路89號,07-7611286,120.331532,22.62148
,高雄市,苓雅區,信君耳鼻喉科診所,高雄市苓雅區武廟路196號,07-7168385,120.325537,22.631508
,高雄市,苓雅區,柯武鎮診所,高雄市苓雅區福壽街193號,07-7131840,120.32637,22.626418
,高雄市,苓雅區,泰順聯合診所,高雄市苓雅區光華一路148-95號,07-2241595,120.314992,22.626225
,高雄市,苓雅區,健維診所,高雄市苓雅區福建街25號,07-3344637,120.316578,22.618763
,高雄市,苓雅區,陳清裕小兒科診所,高雄市苓雅區三多一路327號,07-7517221,120.328586,22.621666
,高雄市,苓雅區,童春診所,高雄市苓雅區武慶三路98號,07-7210983,120.331852,22.62047
,高雄市,楠梓區,宏生診所,高雄市楠梓區樂群街179巷2號,07-3619412,120.296716,22.718957
,高雄市,楠梓區,長義診所,高雄市楠梓區惠民路46號,07-3640553,120.298573,22.724916
,高雄市,楠梓區,康東原診所,高雄市楠梓區右昌街376號,07-3610115,120.28898,22.715042
,高雄市,楠梓區,郭士彰耳鼻喉科診所,高雄市楠梓區後昌路862-1號,07-3683235,120.294621,22.712391
,高雄市,楠梓區,陳顯明診所,高雄市楠梓區德賢路265號,07-3648127,120.303945,22.726113
,高雄市,鼓山區,朱光興診所,高雄市鼓山區文信路256號1樓,07-5223188,120.299177,22.664736
,高雄市,鼓山區,為好診所,高雄市鼓山區九如四路957號,07-5215489,120.278766,22.655795
,高雄市,鼓山區,家安診所,高雄市鼓山區裕誠路1515號,07-5541515,120.295186,22.664864
,高雄市,鼓山區,瑞芳耳鼻喉科診所,高雄市鼓山區華榮路298號1樓,07-5527887,120.297016,22.666278
,高雄市,鼓山區,劉水壽診所,高雄市鼓山區鼓山二路166-7號,07-5211891,120.28088,22.637174
,高雄市,鼓山區,謝加晉診所,高雄市鼓山區民利街1號1樓,07-5532526,120.294996,22.66132
,高雄市,鳳山區,大欣診所,高雄市鳳山區文化路25號,07-7993009,120.357799,22.633281
,高雄市,鳳山區,文衡診所,高雄市鳳山區文衡路344號,07-7768185,120.355006,22.640205
,高雄市,鳳山區,台安診所,高雄市鳳山區雙慈街26號,07-7410268,120.35708,22.625003
,高雄市,鳳山區,林誓揚診所,高雄市鳳山區經武路18號,07-7482228,120.362213,22.62618
,高雄市,鳳山區,祐幼小兒科診所,高雄市鳳山區八德路296巷28號,07-7769977,120.355496,22.639757
,高雄市,鳳山區,高丹榕診所,高雄市鳳山區光復路二段223號,07-7475556,120.344787,22.629275
,高雄市,鳳山區,陳柏蒼耳鼻喉科診所,高雄市鳳山區文衡路480號,07-7775388,120.35029,22.641076
,高雄市,鳳山區,陳重志聯合診所,高雄市鳳山區光復路一段139號,07-7427329,120.350668,22.629114
,高雄市,鳳山區,新華田內科診所,高雄市鳳山區曹公路16之4號,07-7999128,120.357277,22.628928
,高雄市,鳳山區,聖壹診所,高雄市鳳山區瑞興路482號1樓,07-7014755,120.371765,22.630898
,屏東縣,內埔鄉,蕭文熙診所,屏東縣內埔鄉廣濟路149號,08-7692999,120.56656,22.612546
,屏東縣,里港鄉,普生診所,屏東縣里港鄉大平村中山路35號,08-7751188,120.494343,22.776564
,屏東縣,東港鎮,宋耳鼻喉科診所,屏東縣東港鎮光復路二段88號,08-8353681,120.452766,22.466439
,屏東縣,長治鄉,和合診所,屏東縣長治鄉長興路132號,08-7381258,120.524502,22.67808
,屏東縣,屏東市,林長興診所,屏東縣屏東市廣東路72號,08-7236266,120.499206,22.67142
,屏東縣,屏東市,張俊智診所,屏東縣屏東市博愛路215號,08-7667010,120.481001,22.678294
,屏東縣,屏東市,梁宏志診所,屏東縣屏東市自由路379-4號,08-7364494,120.495431,22.680544
,屏東縣,屏東市,蔡長禧診所,屏東縣屏東市民生路12-16號,08-7227766,120.501413,22.665668
,屏東縣,恆春鎮,洪梓策親子診所,屏東縣恆春鎮環城北路181號,08-8880197,120.746345,22.009169
,屏東縣,高樹鄉,嘉誠診所,屏東縣高樹鄉高樹村南興路118-1號,08-7962772,120.601718,22.823485
,屏東縣,新園鄉,趙致成診所,屏東縣新園鄉仙吉路211號,08-8681236,120.462947,22.546935
,屏東縣,萬丹鄉,張家瑜診所,屏東縣萬丹鄉社皮路3段228號,08-7070342,120.470596,22.618362
,屏東縣,萬丹鄉,陳琪銘診所,屏東縣萬丹鄉萬壽路二段275號,08-7770488,120.487641,22.586948
,屏東縣,潮州鎮,黃志忠診所,屏東縣潮州鎮中山路33號,08-7884486,120.543111,22.549496
,屏東縣,潮州鎮,瑞安診所,屏東縣潮州鎮興隆路137號,08-7888716,120.540045,22.543277
,屏東縣,鹽埔鄉,永興診所,屏東縣鹽埔鄉振興村中正路54號,08-7021343,120.609188,22.722726
,屏東縣,鹽埔鄉,和生診所,屏東縣鹽埔鄉維新路72-2號,08-7938202,120.556734,22.739795
,屏東縣,鹽埔鄉,長生診所,屏東縣鹽埔鄉鹽中村勝利路45之9號,08-7935915,120.574123,22.755807
,澎湖縣,馬公市,江明儒耳鼻喉科診所,澎湖縣馬公市大勇街65號,06-9276768,119.571461,23.572147
,澎湖縣,馬公市,周明河小兒科診所,澎湖縣馬公市陽明路33號,06-9264080,119.574724,23.572724
,花蓮縣,玉里鎮,里安診所,花蓮縣玉里鎮復興街28號,03-8883232,121.313059,23.332293
,花蓮縣,玉里鎮,啟光診所,花蓮縣玉里鎮中華路74號,03-8880468,121.316434,23.334233
,花蓮縣,光復鄉,花蓮縣光復鄉衛生所,花蓮縣光復鄉大馬村中學街158號,03-8701114,121.42594,23.671897
,花蓮縣,吉安鄉,福田耳鼻喉科診所,花蓮縣吉安鄉建國路一段65號,03-8577823,121.594434,23.985019
,花蓮縣,秀林鄉,秀林鄉衛生所,花蓮縣秀林鄉秀林村12鄰秀林路88號,03-8612122,121.63337,24.126902
,花蓮縣,花蓮市,佳佳診所,花蓮縣花蓮市中山路142之7號,03-8337437,121.609855,23.976572
,花蓮縣,花蓮市,郭乃瑜耳鼻喉科診所,花蓮縣花蓮市中山路654-1號,03-8563601,121.596514,23.993845
,花蓮縣,新城鄉,路加家庭醫師診所,花蓮縣新城鄉北埔村自信街13號,03-8265082,121.603374,24.028331
,臺東縣,東河鄉,都蘭診所,臺東縣東河鄉都蘭村21鄰都蘭96號,08-9530021,121.227571,22.872983
,臺東縣,金峰鄉,臺東縣金峰鄉衛生所,臺東縣金峰鄉賓茂村14號,089-772201,120.960646,22.53248
,臺東縣,鹿野鄉,臺東縣鹿野鄉衛生所,臺東縣鹿野鄉中華路一段418號,089-551074,121.136553,22.910257
,臺東縣,綠島鄉,臺東縣綠島鄉衛生所,臺東縣綠島鄉中寮村1-1號,08-9672511,121.469257,22.672905
,臺東縣,臺東市,大慶家醫科外科診所,臺東縣臺東市中山路267號,08-9322221,121.151902,22.756105
,臺東縣,臺東市,尤憲明內科小兒科診所,臺東縣臺東市中華路一段396號,089-323306,121.152801,22.754093
,臺北市,松山區,親親家庭診所,臺北市松山區南京東路5段347號1樓,02-25283232,121.567756,25.051546
,臺北市,萬華區,盧漢隆耳鼻喉科診所,臺北市萬華區環河南路二段197號,02-23361363,121.491752,25.032268
,新北市,永和區,誠新耳鼻喉科診所,新北市永和區永和路二段173號,02-22318000,121.515224,25.013207
,新北市,永和區,德上診所,新北市永和區中正路106號,02-29403938,121.514465,24.995903
,桃園市,八德區,介壽診所,桃園市八德區介壽路一段865號,03-3677787,121.299884,24.961058
,桃園市,大溪區,誠德耳鼻喉科診所,桃園市大溪區康莊路192號,03-3883132,121.288431,24.879822
,桃園市,中壢區,佳國耳鼻喉科診所,桃園市中壢區中北路47號1樓,03-4664735,121.236829,24.956136
,桃園市,中壢區,長安內科診所,桃園市中壢區中山東路二段536號1樓,03-4655665,121.245499,24.946721
,桃園市,中壢區,馬興華耳鼻喉科診所,桃園市中壢區中北路二段80號,03-4591680,121.225102,24.950658
,桃園市,中壢區,寰東耳鼻喉科診所,桃園市中壢區環中東路187號1樓,03-4559069,121.258173,24.96416
,桃園市,平鎮區,文化診所,桃園市平鎮區文化街92號1-2樓,03-4951689,121.202975,24.953911
,桃園市,桃園區,大順診所,桃園市桃園區南平路302之3號,03-3167585,121.298764,25.018514
,桃園市,桃園區,日出親子診所,桃園市桃園區中山路824號1樓、826號1樓,03-3787876,121.290395,24.990915
,桃園市,桃園區,何翊菁診所,桃園市桃園區中埔六街123號,03-3551192,121.295194,25.01789
,桃園市,桃園區,邵柏源耳鼻喉科診所,桃園市桃園區中正路1141號1樓,03-3166611,121.297349,25.018096
,桃園市,桃園區,偉勝耳鼻喉科診所,桃園市桃園區中正路558號,03-3473858,121.30559,25.00353
,桃園市,桃園區,寶順診所,桃園市桃園區寶山街239號,03-3560127,121.314787,25.011586
,桃園市,楊梅區,桃園市楊梅區衛生所,桃園市楊梅區校前路409號,03-4750151,121.149676,24.896985
,桃園市,龍潭區,桃園市龍潭區衛生所,桃園市龍潭區中正路210號,03-4792033,121.21653,24.864041
,桃園市,龍潭區,龍欣耳鼻喉科診所,桃園市龍潭區中正路254號,03-4808306,121.217266,24.862658
,桃園市,龜山區,永樂耳鼻喉科診所,桃園市龜山區萬壽路1段107號1樓、109號1樓,02-82000580,121.409094,25.018923
,桃園市,龜山區,南崁現代診所,桃園市龜山區南祥路40號,03-3218080,121.297427,25.046271
,桃園市,觀音區,全心診所,桃園市觀音區大觀路二段182號1樓,03-4834783,121.140655,25.045763
,桃園市,觀音區,桃園市觀音區衛生所,桃園市觀音區觀新路58號,03-4732031,121.083751,25.027823
,新竹市,東區,新竹科學工業園區員工診所,新竹市東區科園里工業東二路2號,03-6669996,121.0026186,24.7805151
,新竹縣,尖石鄉,新竹縣尖石鄉衛生所,新竹縣尖石鄉嘉樂村2鄰61號,03-5841011,121.202274,24.70562
,新竹縣,竹北市,傅仁良小兒科診所,新竹縣竹北市博愛街172號,03-5530106,121.00573,24.83239
,新竹縣,寶山鄉,新竹縣寶山鄉衛生所,新竹縣寶山鄉雙園路二段273號,03-5203054,120.994859,24.766908
,苗栗縣,獅潭鄉,苗栗縣獅潭鄉衛生所,苗栗縣獅潭鄉新店村11鄰新店130之6號,037-931309,120.920087,24.539493
,彰化縣,彰化市,信成耳鼻喉科診所,彰化縣彰化市三民路304號,04-7235900,120.544752,24.085705
,新北市,板橋區,新北市板橋區衛生所,新北市板橋區英士路192號,02-22586606,121.458327,25.023316
,新北市,新店區,新北市新店區衛生所,新北市新店區北新路一段 86 號 12樓,02-29113984,121.541669,24.967645
,新北市,蘆洲區,新北市蘆洲區衛生所,新北市蘆洲區中央路58號,02-22812011,121.473284,25.083963
,新北市,瑞芳區,新北市瑞芳區衛生所,新北市瑞芳區明燈路3段1號,02-24972132,121.809044,25.107371
,新北市,五股區,新北市五股區衛生所,新北市五股區新城三路11號,02-22917717,121.436811,25.083507
,新北市,深坑區,新北市深坑區衛生所,新北市深坑區深坑街165號1-3樓,02-26621567,121.612643,25.000938
,新北市,八里區,新北市八里區衛生所,新北市八里區舊城路16號,02-26102137,121.40006,25.147095
,新北市,平溪區,新北市平溪區衛生所,新北市平溪區石底里公園街17號,02-24951015,121.737185,25.024681
,新北市,三芝區,新北市三芝區衛生所,新北市三芝區中山路1段12號,02-26362007,121.500753,25.258407
,基隆市,中正區,安瀾診所,基隆市中正區中正路197號,02-24623389,121.760744,25.142776
,臺東縣,臺東市,臺東縣臺東市衛生所,臺東縣臺東市大同路51號,089-350806,121.156238,22.750382
,臺東縣,蘭嶼鄉,臺東縣蘭嶼鄉衛生所,臺東縣蘭嶼鄉紅頭村36-1號,089-732002,121.55465,22.024916
,臺東縣,延平鄉,臺東縣延平鄉衛生所,臺東縣延平鄉桃源1鄰11號,089-561040,121.08564,22.902107
,臺東縣,卑南鄉,臺東縣卑南鄉衛生所,臺東縣卑南鄉太平村和平路132號,089-382042,121.088069,22.78207
,臺東縣,關山鎮,臺東縣關山鎮衛生所,臺東縣關山鎮中華路78號,089-810460,121.163854,23.049569
,臺東縣,海端鄉,臺東縣海端鄉衛生所,臺東縣海端鄉海端村山界29號,089-931391,121.176693,23.100942
,臺東縣,池上鄉,臺東縣池上鄉衛生所,臺東縣池上鄉中山路104號,089-862609,121.214811,23.121687
,臺東縣,東河鄉,臺東縣東河鄉衛生所,臺東縣東河鄉東河村10鄰300號,089-896289,121.303079,22.968461
,臺東縣,成功鎮,臺東縣成功鎮衛生所,臺東縣成功鎮中山東路64號,089-851419,121.379504,23.099927
,臺東縣,長濱鄉,臺東縣長濱鄉衛生所,臺東縣長濱鄉長濱村7鄰中興路46號,089-831022,121.453925,23.31878
,臺東縣,太麻里鄉,臺東縣太麻里鄉衛生所,臺東縣太麻里鄉泰和村2鄰民權路66號,089-781220,121.007423,22.615376
,臺東縣,大武鄉,臺東縣大武鄉衛生所,臺東縣大武鄉大武村復興路2-2號,089-791325,120.907819,22.364141
,臺東縣,達仁鄉,臺東縣達仁鄉衛生所,臺東縣達仁鄉安朔村復興路122號,089-702209,120.885002,22.29323
,新北市,永和區,新北市永和區衛生所,新北市永和區秀朗路1段137號,02-32332780,121.516232,25.004971
,新北市,土城區,新北市土城區衛生所,新北市土城區和平路26號,02-22603181,121.443189,24.972857
,新北市,鶯歌區,新北市鶯歌區衛生所,新北市鶯歌區文化路389號,02-26702304,121.352529,24.95047
,新北市,淡水區,新北市淡水區衛生所,新北市淡水區中山路158號,02-26215620,121.440844,25.172778
,新北市,泰山區,新北市泰山區衛生所,新北市泰山區全興路212號3樓,02-29099921,121.433653,25.056131
,新北市,林口區,新北市林口區衛生所,新北市林口區林口路70號,02-26068760,121.390206,25.079383
,新北市,石門區,新北市石門區衛生所,新北市石門區石門里中山路28之1號,02-26381007,121.565622,25.289978
,新北市,樹林區,新北市樹林區衛生所,新北市樹林區樹新路40-7號,02-26812134,121.414835,24.983889
,新北市,三重區,艾樂堡診所,新北市三重區集賢路63之1號,02-82875777,121.494832,25.086417
,新北市,三重區,高柏森耳鼻喉科診所,新北市三重區正義北路191號,02-29839808,121.496318,25.068069
,新北市,萬里區,享悅診所,新北市萬里區瑪鋉路34號,02-24928190,121.689323,25.177399
,新北市,蘆洲區,人安診所,新北市蘆洲區民權路133號1樓,02-22881661,121.471808,25.090222
,基隆市,中正區,八斗子診所,基隆市中正區北寧路378之1號2樓,02-24698789,121.795815,25.139437
,基隆市,七堵區,泰安內科診所,基隆市七堵區明德一路93號,02-24552305,121.715813,25.098154
,基隆市,仁愛區,王孟俊診所,基隆市仁愛區南榮路143號,02-24293128,121.742976,25.124624
,新北市,新莊區,新北市新莊區衛生所,新北市新莊區中華路一段2號,02-29967123,121.452248,25.036408
,新北市,三重區,謝明宏小兒科,新北市三重區中華路43號,02-29816425,121.483575,25.061775
,新北市,三重區,惟新診所,新北市三重區五華街145號1樓,02-28572559,121.490831,25.084696
,新北市,三重區,大有診所,新北市三重區中正北路374號1樓,02-29834567,121.476844,25.069638
,新北市,三重區,保順聯合診所,新北市三重區正義北路5號,02-29855630,121.497894,25.062591
,新北市,三重區,德心診所,新北市三重區力行路二段206號,02-82878007,121.483481,25.077725
,新北市,三重區,德河聯合診所,新北市三重區重陽路三段117號,02-89851515,121.490817,25.068605
,新北市,中和區,淯陞診所,新北市中和區安樂路19號1至2樓,02-29400355,121.511629,24.992207
,新北市,中和區,戴廣懷小兒科診所,新北市中和區安樂路66號,02-29414451,121.51227,24.99323
,新北市,中和區,益德診所,新北市中和區忠孝街75號1樓,02-86688421,121.511962,24.985092
,新北市,中和區,曾咸統小兒科診所,新北市中和區景安路229號1樓,02-31516343,121.504282,24.991174
,新北市,中和區,陳建良耳鼻喉科診所,新北市中和區景新街465號1、2樓,02-89413009,121.513388,24.988244
,新北市,中和區,優寶婦產科診所,新北市中和區華新街22號,02-86689519,121.507527,24.984893
,新北市,中和區,廣祥診所,新北市中和區興南路2段27號1樓後半部及29號１、２樓,02-86683090,121.507867,24.985821
,新北市,中和區,佑欣診所,新北市中和區興南路一段90號１樓,02-86685811,121.509904,24.989204
,基隆市,中正區,林承興診所,基隆市中正區北寧路319號,02-24697639,121.795339,25.139752
,基隆市,仁愛區,仁愛診所,基隆市仁愛區孝三路80號,02-24223255,121.739842,25.130723
,基隆市,中正區,合成診所,基隆市中正區祥豐街205號,02-24632532,121.765696,25.143495
,臺東縣,臺東市,李文正內科診所,臺東縣臺東市中正路295號,089-323920,121.152259,22.756539
,臺東縣,太麻里鄉,杏歆診所,臺東縣太麻里鄉太麻里街253號,089-783018,121.005505,22.610468
,臺東縣,臺東市,賴鵬雲診所,臺東縣臺東市正氣路153號,089-310070,121.152428,22.751783
,臺東縣,臺東市,和意診所,臺東縣臺東市四維路三段30號,089-220727,121.144521,22.76601
,臺東縣,臺東市,育生小兒科診所,臺東縣臺東市中山路244號,089-345304,121.151565,22.75643
,臺東縣,臺東市,小太陽小兒科診所,臺東縣臺東市光明路124號,089-349106,121.152064,22.7556
,新北市,三峽區,新禾診所,新北市三峽區學成路235號1樓,02-86716686,121.375033,24.942616
,基隆市,仁愛區,楊耳鼻喉科診所,基隆市仁愛區仁二路115號,02-24245212,121.748048,25.127382
,基隆市,仁愛區,李任堅小兒科診所,基隆市仁愛區孝一路86號,02-24269096,121.740956,25.129251
,新北市,中和區,新北市中和區衛生所,新北市中和區南山路4巷3號,02-22491936,121.501638,24.998691
,新北市,三峽區,新北市三峽區衛生所,新北市三峽區光明路71號3樓,02-26711592,121.376129,24.928297
,臺中市,大里區,安聲耳鼻喉科診所,臺中市大里區大里路98-5號,04-24852301,120.686617,24.104631
,臺中市,梧棲區,安心診所,臺中市梧棲區港埠路一段1115號,04-26562059,120.534901,24.249396
,臺中市,龍井區,康德耳鼻喉科診所,臺中市龍井區新興路43號,04-26317903,120.587641,24.181017
,臺中市,霧峰區,陳炎山家庭醫學科診所,臺中市霧峰區中正路1110號,04-23391100,120.699121,24.069355
,彰化縣,芳苑鄉,振源診所,彰化縣芳苑鄉民生村建成路44號,04-8933786,120.340159,23.963563
,南投縣,南投市,詹建盛診所,南投縣南投市南陽路475號,04-92243055,120.681077,23.911529
,臺中市,西屯區,蘇家龍診所,臺中市西屯區黎明路三段421號,04-27085151,120.639219,24.183395
,新北市,三重區,德慈聯合診所,新北市三重區重新路三段14號,02-29736693,121.495125,25.061377
,新北市,三重區,江村聯合診所,新北市三重區重新路三段7號,02-29821515,121.495275,25.061648
,新北市,三重區,林永權耳鼻喉科診所,新北市三重區三陽路32號,02-29714526,121.48535,25.058675
,彰化縣,線西鄉,彰化縣線西鄉衛生所,彰化縣線西鄉寓埔村中央路2段25號1樓,04-7585201,120.470429,24.130385
,新北市,中和區,馮泰龍小兒科診所,新北市中和區南華路21號,02-82421606,121.502745,24.995857
,新北市,板橋區,吳建明小兒科診所,新北市板橋區四川路二段245巷46號,02-89670670,121.451785,24.992514
,新北市,中和區,翰霖耳鼻喉科診所,新北市中和區景安路202號,02-22462238,121.504029,24.991225
,新北市,中和區,捷安診所,新北市中和區中和路456號,02-22331117,121.512179,25.00373
,新北市,新莊區,晉安診所,新北市新莊區中正路700之24號,02-29061510,121.417777,25.026897
,新北市,永和區,旭恩小兒科診所,新北市永和區中山路一段172號,02-29220217,121.509243,25.009146
,新北市,鶯歌區,金鶯診所,新北市鶯歌區國慶街167號,02-26702559,121.35123,24.953075
,新北市,三重區,華貞診所,新北市三重區三和路三段80號,02-29716626,121.494617,25.071697
,新北市,三重區,重新診所,新北市三重區重新路二段150號,02-29765868,121.495617,25.061495
,新北市,三重區,健福診所,新北市三重區溪尾街171號,02-89851660,121.488916,25.080276
,新北市,三重區,龍華診所,新北市三重區五華街100號,02-29883500,121.492635,25.082488
,新北市,新莊區,鉅儒診所,新北市新莊區西盛街180號1樓,02 2205 7193,121.428079,25.018767
,新北市,樹林區,三樹金鶯診所,新北市樹林區學成路600號,02-26807101,121.381815,24.945838
,臺北市,北投區,文遠診所,臺北市北投區石牌路二段346號1、2樓,02-28739991,121.524888,25.122927
,新北市,三重區,益安診所,新北市三重區正義北路152號,02-89828775,121.496547,25.06624
,新北市,三重區,正興診所,新北市三重區正義北路113號,02-29861235,121.496981,25.065788
,新北市,板橋區,聯德診所,新北市板橋區溪北路13號,02-86871766,121.426838,24.990478
,新北市,板橋區,樂福診所,新北市板橋區三民路二段89號,02-29560606,121.479411,25.0165
,新北市,新莊區,寶祥診所,新北市新莊區中平路53號,02-29960303,121.444685,25.044412
,新北市,三重區,集美診所,新北市三重區集美街174-1號,02-29775177,121.490427,25.05325
,新北市,三重區,九如聯合診所,新北市三重區仁愛街753號,02-28575600,121.481264,25.08031
,新北市,三重區,介壽耳鼻喉科診所,新北市三重區正義北路255號,02-29810089,121.495659,25.069716
,新北市,蘆洲區,民族診所,新北市蘆洲區民族路53號,02-82857866,121.478593,25.085532
,新北市,蘆洲區,德興診所,新北市蘆洲區復興路67號,02-22855598,121.476005,25.087308
,新北市,板橋區,德一診所,新北市板橋區中山路二段236號,02-29535396,121.478438,25.018048
,新北市,新莊區,中心診所,新北市新莊區中港路321號,02-22765992,121.452436,25.044926
,新北市,新莊區,中平耳鼻喉科診所,新北市新莊區中平路29號,02-29977307,121.444672,25.043713
,新北市,新莊區,新莊徐耳鼻喉科診所,新北市新莊區中平路373號,02-29907505,121.444615,25.052533
,臺北市,內湖區,葫洲診所,臺北市內湖區康寧路三段35號,02-26306606,121.607625,25.072665
,新北市,蘆洲區,華安診所,新北市蘆洲區長安街205號,02-28481500,121.46001,25.082128
,新北市,蘆洲區,建群診所,新北市蘆洲區中華街71號1樓,02-28487669,121.462256,25.080629
,新北市,蘆洲區,健群診所,新北市蘆洲區中華街71號1樓,02-28487669,121.462256,25.080629
,新北市,蘆洲區,健群耳鼻喉科診所,新北市蘆洲區中華街71號1樓,02-28487669,121.462256,25.080629
,新北市,三重區,明安耳鼻喉科診所,新北市三重區正義北路54號,02-29862228,121.497265,25.06388
,新北市,板橋區,林弘揚耳鼻喉科,新北市板橋區陽明街295號,02-82513878,121.461763,25.026547
,新北市,板橋區,林弘揚耳鼻喉科健康家庭醫學科聯合診所,新北市板橋區陽明街295號,02-82513878,121.461763,25.026547
,新北市,新莊區,林復森耳鼻喉科診所,新北市新莊區民安路220號,02-22011378,121.42598,25.022592
,新北市,泰山區,弘森診所,新北市泰山區明志路一段257號,02-29090568,121.432211,25.060299
,新北市,三重區,皇嘉耳鼻喉科診所,新北市三重區五華街247號,02-28579666,121.489155,25.086228
,新北市,三重區,天亮耳鼻喉科,新北市三重區中正北路314號,02-89813431,121.479217,25.068998
,新北市,三重區,宏生診所,新北市三重區五華街72號,02-29819948,121.493291,25.081921
,新北市,三重區,洋基耳鼻喉科,新北市三重區正義北路288號,02-89810900,121.495521,25.069424
,新北市,中和區,嘉仁診所,新北市中和區華順街132號1樓,02-29521878,121.46492,24.996272
,新北市,板橋區,興安診所,新北市板橋區龍興街51號,02-29652683,121.443094,25.00093
,新北市,泰山區,楓江診所,新北市泰山區楓江路8號,02-22969708,121.433508,25.062438
,新北市,永和區,健新耳鼻喉科診,新北市永和區永貞路297號1樓,02-89210657,121.510841,25.005597
,新北市,永和區,樂華診所,新北市永和區永和路一段155號1樓,02-86608030,121.514174,25.009367
,新北市,樹林區,幼安聯合診所,新北市樹林區鎮前街26號,02-26817700,121.426036,24.993127
,新北市,樹林區,何廷裕小兒科診所,新北市樹林區日新街34號,02-26756789,121.422718,24.992419
,新北市,蘆洲區,健安診所,新北市蘆洲區長安街265號1樓,02-22826588,121.458646,25.083767
,新北市,蘆洲區,建安診所,新北市蘆洲區長安街265號1樓,02-22826588,121.458646,25.083767
,新北市,蘆洲區,弘一診所,新北市蘆洲區重陽街82號,02-82860000,121.482026,25.084433
,新北市,蘆洲區,健侒診所,新北市蘆洲區長安街265號1樓,02-22826588,121.458646,25.083767
,新北市,新店區,何耳鼻喉科診所,新北市新店區北新路3段138號1樓,02-29132269,121.54164,24.982125
,臺北市,內湖區,育睿診所,臺北市內湖區內湖路一段217巷35號,02-26560801,121.565396,25.083773
,臺北市,中山區,大直診所,臺北市中山區北安路595巷2弄2號,02-25332339,121.548329,25.082041
,臺北市,大安區,杏保醫網信誠診所,臺北市大安區信義路四段197號1、2樓,02-27068208,121.551438,25.033412
,臺北市,信義區,松仁耳鼻喉科診所,臺北市信義區松仁路231號,02-87808580,121.568742,25.026222
,宜蘭縣,宜蘭市,李碧峰小兒科診所,宜蘭市中山路三段29號,03-9356288,121.75214,24.756029
,臺中市,北屯區,蘇游耳鼻喉科診所,台中市北屯區昌平路一段99之3號,04-22462420,120.690372,24.173067
,臺中市,大甲區,大元診所,台中市大甲區順天路136號,04-26802250,120.622173,24.344587
,臺中市,大甲區,小熊的森林診所,台中市大甲區三民路132號,04-26805060,120.621939,24.348445
,臺中市,大甲區,琉璃光診所,台中市大甲區順天路342號,04-26873051,120.627137,24.350311
,臺中市,南屯區,鄭元凱耳鼻喉科診所,台中市南屯區河南路四段376號,04-22513502,120.636934,24.152055
,雲林縣,虎尾鎮,虎尾台全診所,雲林縣虎尾鎮林森路一段346號,05-6366111,120.436387,23.712202
,嘉義市,東區,大心診所,嘉義市東區吳鳳北路116號,05-2279237,120.45362,23.47728
,嘉義市,西區,嘉祐耳鼻喉科診所,嘉義市西區興業西路156號,05-2350860,120.441599,23.468319
,嘉義市,東區,蔡耳鼻喉科診所,嘉義市東區中山路270號,05-2222602,120.45003,23.480219
,嘉義市,西區,陳明煌診所,嘉義市西區北興街442號,05-2337036,120.434929,23.48751
,嘉義市,東區,許小兒科診所,嘉義市東區垂楊路139號,05-2280858,120.45746,23.4743
,南投縣,埔里鎮,普仁診所,南投縣埔里鎮東峰路19號,049-2930373,120.945633,24.002844
,花蓮縣,吉安鄉,劉耳鼻喉科診所,花蓮縣吉安鄉中華路二段138號,03-8544322,121.584933,23.973949
,花蓮縣,壽豐鄉,信德診所,花蓮縣壽豐鄉中山路三段76號,03-8661197,121.53088,23.909351
,花蓮縣,花蓮市,廖耳鼻喉科診所,花蓮縣花蓮市中華路422之1號,03-8356196,121.594515,23.974792
,花蓮縣,花蓮市,中正診所,花蓮縣花蓮市中正路172號,03-8316655,121.598106,23.971005
,花蓮縣,吉安鄉,自強耳鼻喉科診所,花蓮縣吉安鄉北昌村自強路568號,03-8561277,121.592581,23.987323
,花蓮縣,吉安鄉,和田小兒科診所,花蓮縣吉安鄉建國路二段229號1樓,03-8576822,121.576247,23.992256
,花蓮縣,花蓮市,陳建發耳鼻喉科診所,花蓮縣花蓮市中美路77之2號,03-8246119,121.623555,23.988954
,花蓮縣,花蓮市,嘉光耳鼻喉科診所,花蓮縣花蓮市明禮路71-5號,03-8341440,121.608309,23.982284
,花蓮縣,花蓮市,周耳鼻喉科診所,花蓮縣花蓮市中山路747號,03-8568801,121.59768,23.991696
,花蓮縣,花蓮市,江洱診所,花蓮縣花蓮市建國路252號,03-8311717,121.599656,23.984337
,花蓮縣,吉安鄉,光鹽診所,花蓮縣吉安鄉慶豐村中山路三段281號,03-8534305,121.570684,23.977709
,花蓮縣,花蓮市,張淑華小兒科診所,花蓮縣花蓮市國聯四路75號,03-8311031,121.606084,23.99237
,花蓮縣,花蓮市,黃國樑小兒科診所,花蓮縣花蓮市中福路186號,03-8343959,121.601017,23.973558
,花蓮縣,新城鄉,花蓮縣新城鄉衛生所,花蓮縣新城鄉北埔村北埔路160號,03-8266781,121.605262,24.030874
,花蓮縣,花蓮市,張海山診所,花蓮縣花蓮市中正路191號,03-8353777,121.598919,23.971858
,花蓮縣,鳳林鎮,花蓮縣鳳林鎮衛生所,花蓮縣鳳林鎮公正街8-1號,03-8761116,121.451367,23.74537
,花蓮縣,富里鄉,花蓮縣富里鄉衛生所,花蓮縣富里鄉中山路203號,03-8831029,121.24906,23.178473
,花蓮縣,吉安鄉,康寧診所,花蓮縣吉安鄉慶豐村中山路3段386號,03-8530910,121.568853,23.979095
,臺東縣,臺東市,路瑪診所,臺東縣知本里吉泰路18號,089-510015,121.05743,22.706641
,臺東縣,成功鎮,曾建元診所,臺東縣成功鎮中華路112號,089-851002,121.38002,23.100953
,屏東縣,屏東市,小太陽兒科聯合診所,屏東縣屏東市建豐路169號,08-7379591,120.505348,22.675816
,南投縣,南投市,幼安小兒科診所,南投縣南投市民族路243號,049-2206706,120.687527,23.90859